[
    {
        "Altitude(m)": 605470.7436923048,
        "Argument of Periapsis(deg)": 0.0,
        "Eccentricity": 0.0,
        "Inclination(deg)": 60.0,
        "Latitude(deg)": 27.988055795135093,
        "Longitude(deg)": -37.73709893221484,
        "Mean Anomaly(deg)": -212.7273,
        "RAAN(deg)": 260.0,
        "Satellite Name": "Test1 1153",
        "Satellite Number": 1153,
        "Semi-Major Axis(m)": 6980739.136638005,
        "Time(s)": 0
    },
    {
        "Altitude(m)": 605395.7823101754,
        "Argument of Periapsis(deg)": 0.00010418945913296404,
        "Eccentricity": 0.0,
        "Inclination(deg)": 60.0,
        "Latitude(deg)": 27.473747019418884,
        "Longitude(deg)": -37.38391063914209,
        "Mean Anomaly(deg)": -212.1071938545382,
        "RAAN(deg)": 259.99957995086027,
        "Satellite Name": "Test1 1153",
        "Satellite Number": 1153,
        "Semi-Major Axis(m)": 6980739.136638005,
        "Time(s)": 10
    },
    {
        "Altitude(m)": 605322.6235986559,
        "Argument of Periapsis(deg)": 0.0002083789182659281,
        "Eccentricity": 0.0,
        "Inclination(deg)": 60.0,
        "Latitude(deg)": 26.95829244847015,
        "Longitude(deg)": -37.03437053369108,
        "Mean Anomaly(deg)": -211.48708770907638,
        "RAAN(deg)": 259.9991599017205,
        "Satellite Name": "Test1 1153",
        "Satellite Number": 1153,
        "Semi-Major Axis(m)": 6980739.136638005,
        "Time(s)": 20
    },
    {
        "Altitude(m)": 605251.3232319551,
        "Argument of Periapsis(deg)": 0.00031256837739889213,
        "Eccentricity": 0.0,
        "Inclination(deg)": 60.0,
        "Latitude(deg)": 26.44172658465241,
        "Longitude(deg)": -36.68837396663788,
        "Mean Anomaly(deg)": -210.86698156361456,
        "RAAN(deg)": 259.9987398525808,
        "Satellite Name": "Test1 1153",
        "Satellite Number": 1153,
        "Semi-Major Axis(m)": 6980739.136638005,
        "Time(s)": 30
    },
    {
        "Altitude(m)": 605181.9361563409,
        "Argument of Periapsis(deg)": 0.0004167578365318562,
        "Eccentricity": 0.0,
        "Inclination(deg)": 60.0,
        "Latitude(deg)": 25.92408307603989,
        "Longitude(deg)": -36.34581802121207,
        "Mean Anomaly(deg)": -210.2468754181527,
        "RAAN(deg)": 259.998319803441,
        "Satellite Name": "Test1 1153",
        "Satellite Number": 1153,
        "Semi-Major Axis(m)": 6980739.136638005,
        "Time(s)": 40
    },
    {
        "Altitude(m)": 605114.5165611886,
        "Argument of Periapsis(deg)": 0.0005209472956648203,
        "Eccentricity": 0.0,
        "Inclination(deg)": 60.0,
        "Latitude(deg)": 25.405394748970554,
        "Longitude(deg)": -36.00660245697427,
        "Mean Anomaly(deg)": -209.62676927269084,
        "RAAN(deg)": 259.9978997543013,
        "Satellite Name": "Test1 1153",
        "Satellite Number": 1153,
        "Semi-Major Axis(m)": 6980739.136638005,
        "Time(s)": 50
    },
    {
        "Altitude(m)": 605049.1178503637,
        "Argument of Periapsis(deg)": 0.0006251367547977843,
        "Eccentricity": 0.0,
        "Inclination(deg)": 60.0,
        "Latitude(deg)": 24.885693639483645,
        "Longitude(deg)": -35.67062914161985,
        "Mean Anomaly(deg)": -209.006663127229,
        "RAAN(deg)": 259.99747970516154,
        "Satellite Name": "Test1 1153",
        "Satellite Number": 1153,
        "Semi-Major Axis(m)": 6980739.136638005,
        "Time(s)": 60
    },
    {
        "Altitude(m)": 604985.7926139443,
        "Argument of Periapsis(deg)": 0.0007293262139307483,
        "Eccentricity": 0.0,
        "Inclination(deg)": 60.0,
        "Latitude(deg)": 24.365011023681113,
        "Longitude(deg)": -35.337801483640334,
        "Mean Anomaly(deg)": -208.38655698176717,
        "RAAN(deg)": 259.9970596560218,
        "Satellite Name": "Test1 1153",
        "Satellite Number": 1153,
        "Semi-Major Axis(m)": 6980739.136638005,
        "Time(s)": 70
    },
    {
        "Altitude(m)": 604924.5926003034,
        "Argument of Periapsis(deg)": 0.0008335156730637124,
        "Eccentricity": 0.0,
        "Inclination(deg)": 60.0,
        "Latitude(deg)": 23.84337744704694,
        "Longitude(deg)": -35.00802537876109,
        "Mean Anomaly(deg)": -207.76645083630532,
        "RAAN(deg)": 259.99663960688207,
        "Satellite Name": "Test1 1153",
        "Satellite Number": 1153,
        "Semi-Major Axis(m)": 6980739.136638005,
        "Time(s)": 80
    },
    {
        "Altitude(m)": 604865.5686885531,
        "Argument of Periapsis(deg)": 0.0009377051321966765,
        "Eccentricity": 0.0,
        "Inclination(deg)": 60.0,
        "Latitude(deg)": 23.320822752768052,
        "Longitude(deg)": -34.68120864445336,
        "Mean Anomaly(deg)": -207.14634469084353,
        "RAAN(deg)": 259.99621955774234,
        "Satellite Name": "Test1 1153",
        "Satellite Number": 1153,
        "Semi-Major Axis(m)": 6980739.136638005,
        "Time(s)": 90
    },
    {
        "Altitude(m)": 604808.7708613886,
        "Argument of Periapsis(deg)": 0.0010418945913296407,
        "Eccentricity": 0.0,
        "Inclination(deg)": 60.0,
        "Latitude(deg)": 22.797376109089104,
        "Longitude(deg)": -34.35726045542009,
        "Mean Anomaly(deg)": -206.52623854538172,
        "RAAN(deg)": 259.99579950860254,
        "Satellite Name": "Test1 1153",
        "Satellite Number": 1153,
        "Semi-Major Axis(m)": 6980739.136638005,
        "Time(s)": 100
    },
    {
        "Altitude(m)": 604754.2481783141,
        "Argument of Periapsis(deg)": 0.0011460840504626045,
        "Eccentricity": 0.0,
        "Inclination(deg)": 60.0,
        "Latitude(deg)": 22.273066035736957,
        "Longitude(deg)": -34.03609229295637,
        "Mean Anomaly(deg)": -205.90613239991987,
        "RAAN(deg)": 259.99537945946287,
        "Satellite Name": "Test1 1153",
        "Satellite Number": 1153,
        "Semi-Major Axis(m)": 6980739.136638005,
        "Time(s)": 110
    },
    {
        "Altitude(m)": 604702.048749302,
        "Argument of Periapsis(deg)": 0.0012502735095955685,
        "Eccentricity": 0.0,
        "Inclination(deg)": 60.0,
        "Latitude(deg)": 21.747920429453302,
        "Longitude(deg)": -33.71761738245438,
        "Mean Anomaly(deg)": -205.28602625445808,
        "RAAN(deg)": 259.9949594103231,
        "Satellite Name": "Test1 1153",
        "Satellite Number": 1153,
        "Semi-Major Axis(m)": 6980739.136638005,
        "Time(s)": 120
    },
    {
        "Altitude(m)": 604652.2197088753,
        "Argument of Periapsis(deg)": 0.0013544629687285324,
        "Eccentricity": 0.0,
        "Inclination(deg)": 60.0,
        "Latitude(deg)": 21.22196658866672,
        "Longitude(deg)": -33.401750131937014,
        "Mean Anomaly(deg)": -204.66592010899623,
        "RAAN(deg)": 259.99453936118334,
        "Satellite Name": "Test1 1153",
        "Satellite Number": 1153,
        "Semi-Major Axis(m)": 6980739.136638005,
        "Time(s)": 130
    },
    {
        "Altitude(m)": 604604.8071906209,
        "Argument of Periapsis(deg)": 0.0014586524278614966,
        "Eccentricity": 0.0,
        "Inclination(deg)": 60.0,
        "Latitude(deg)": 20.69523123733725,
        "Longitude(deg)": -33.08840708450104,
        "Mean Anomaly(deg)": -204.04581396353439,
        "RAAN(deg)": 259.9941193120436,
        "Satellite Name": "Test1 1153",
        "Satellite Number": 1153,
        "Semi-Major Axis(m)": 6980739.136638005,
        "Time(s)": 140
    },
    {
        "Altitude(m)": 604559.8563021768,
        "Argument of Periapsis(deg)": 0.0015628418869944607,
        "Eccentricity": 0.0,
        "Inclination(deg)": 60.0,
        "Latitude(deg)": 20.167740548008403,
        "Longitude(deg)": -32.777506358924654,
        "Mean Anomaly(deg)": -203.42570781807257,
        "RAAN(deg)": 259.9936992629039,
        "Satellite Name": "Test1 1153",
        "Satellite Number": 1153,
        "Semi-Major Axis(m)": 6980739.136638005,
        "Time(s)": 150
    },
    {
        "Altitude(m)": 604517.4111006848,
        "Argument of Periapsis(deg)": 0.0016670313461274247,
        "Eccentricity": 0.0,
        "Inclination(deg)": 60.0,
        "Latitude(deg)": 19.639520164096748,
        "Longitude(deg)": -32.46896709130998,
        "Mean Anomaly(deg)": -202.80560167261072,
        "RAAN(deg)": 259.99327921376414,
        "Satellite Name": "Test1 1153",
        "Satellite Number": 1153,
        "Semi-Major Axis(m)": 6980739.136638005,
        "Time(s)": 160
    },
    {
        "Altitude(m)": 604477.5145687113,
        "Argument of Periapsis(deg)": 0.0017712208052603888,
        "Eccentricity": 0.0,
        "Inclination(deg)": 60.0,
        "Latitude(deg)": 19.110595221448687,
        "Longitude(deg)": -32.162710390628,
        "Mean Anomaly(deg)": -202.18549552714884,
        "RAAN(deg)": 259.9928591646244,
        "Satellite Name": "Test1 1153",
        "Satellite Number": 1153,
        "Semi-Major Axis(m)": 6980739.136638005,
        "Time(s)": 170
    },
    {
        "Altitude(m)": 604440.2085906937,
        "Argument of Periapsis(deg)": 0.001875410264393353,
        "Eccentricity": 0.0,
        "Inclination(deg)": 60.0,
        "Latitude(deg)": 18.5809903691964,
        "Longitude(deg)": -31.858658782409634,
        "Mean Anomaly(deg)": -201.56538938168705,
        "RAAN(deg)": 259.9924391154846,
        "Satellite Name": "Test1 1153",
        "Satellite Number": 1153,
        "Semi-Major Axis(m)": 6980739.136638005,
        "Time(s)": 180
    },
    {
        "Altitude(m)": 604405.5339298714,
        "Argument of Periapsis(deg)": 0.0019795997235263173,
        "Eccentricity": 0.0,
        "Inclination(deg)": 60.0,
        "Latitude(deg)": 18.050729789942054,
        "Longitude(deg)": -31.556735653444274,
        "Mean Anomaly(deg)": -200.9452832362252,
        "RAAN(deg)": 259.99201906634494,
        "Satellite Name": "Test1 1153",
        "Satellite Number": 1153,
        "Semi-Major Axis(m)": 6980739.136638005,
        "Time(s)": 190
    }
]